IRIDIUM 63              
1 25286U 98021B   25350.10944371  .00000387  00000+0  12461-3 0  9991
2 25286  86.3984   5.8003 0002379  87.8790 272.2679 14.36738329449962
IRIDIUM 69              
1 25319U 98026A   25350.18642262  .00000432  00000+0  12780-3 0  9990
2 25319  86.3976  18.4814 0004195 118.9248 241.2373 14.41220358449277
IRIDIUM 71              
1 25320U 98026B   25350.31180613  .00000307  00000+0  88784-4 0  9993
2 25320  86.3976  13.1007 0002344 146.9757 213.1590 14.41320098449827
IRIDIUM 73              
1 25344U 98032C   25350.22461372  .00000668  00000+0  16038-3 0  9992
2 25344  86.4408 329.5077 0003003  91.0223 269.1327 14.51994803456971
IRIDIUM 82              
1 25467U 98051A   25350.14141365  .00034375  00000+0  63500-3 0  9995
2 25467  86.3609  19.3961 0059512 321.7787  37.9257 15.46919372451925
